start=new Date('2023-04-27T00:00:00.000Z').valueOf();
sats=[{"NORAD_CAT_ID":"45546","REV_AT_EPOCH":"16709","FILE":"3894260","OBJECT_TYPE":"PAYLOAD","EPHEMERIS_TYPE":"0","APOAPSIS":"548.192","ECCENTRICITY":"0.00013090","OBJECT_NAME":"STARLINK-1375","TLE_LINE1":"1 45546U 20025R   23116.44592743  .00004205  00000-0  30123-3 0  9997","RCS_SIZE":"LARGE","GP_ID":"230769465","MEAN_MOTION_DDOT":"0.0000000000000","BSTAR":"0.00030123000000","TLE_LINE2":"2 45546  53.0520 132.3643 0001309  89.4946 270.6193 15.06376486167093","INCLINATION":"53.0520","RA_OF_ASC_NODE":"132.3643","MEAN_MOTION":"15.06376486","MEAN_ANOMALY":"270.6193","EPOCH":"2023-04-26T10:42:08.129952","OBJECT_ID":"2020-025R","COUNTRY_CODE":"US","PERIOD":"95.594","CENTER_NAME":"EARTH","REF_FRAME":"TEME","MEAN_MOTION_DOT":"0.00004205","MEAN_ELEMENT_THEORY":"SGP4","ELEMENT_SET_NO":"999","CLASSIFICATION_TYPE":"U","SEMIMAJOR_AXIS":"6925.421","ARG_OF_PERICENTER":"89.4946","DECAY_DATE":null,"LAUNCH_DATE":"2020-04-22","PERIAPSIS":"546.379","SITE":"AFETR","TIME_SYSTEM":"UTC"},{"TIME_SYSTEM":"UTC","PERIAPSIS":"546.225","SITE":"AFETR","LAUNCH_DATE":"2020-04-22","SEMIMAJOR_AXIS":"6925.436","ARG_OF_PERICENTER":"71.1186","DECAY_DATE":null,"CLASSIFICATION_TYPE":"U","ELEMENT_SET_NO":"999","MEAN_ELEMENT_THEORY":"SGP4","REF_FRAME":"TEME","MEAN_MOTION_DOT":"0.00004469","CENTER_NAME":"EARTH","COUNTRY_CODE":"US","PERIOD":"95.594","OBJECT_ID":"2020-025S","EPOCH":"2023-04-26T12:12:22.929408","MEAN_MOTION":"15.06371445","MEAN_ANOMALY":"288.9972","RA_OF_ASC_NODE":"132.0847","TLE_LINE2":"2 45547  53.0530 132.0847 0001554  71.1186 288.9972 15.06371445167114","INCLINATION":"53.0530","BSTAR":"0.00031897000000","MEAN_MOTION_DDOT":"0.0000000000000","RCS_SIZE":"LARGE","GP_ID":"230770214","TLE_LINE1":"1 45547U 20025S   23116.50859872  .00004469  00000-0  31897-3 0  9995","OBJECT_NAME":"STARLINK-1377","EPHEMERIS_TYPE":"0","ECCENTRICITY":"0.00015540","APOAPSIS":"548.377","FILE":"3894260","OBJECT_TYPE":"PAYLOAD","NORAD_CAT_ID":"45547","REV_AT_EPOCH":"16711"},{"CLASSIFICATION_TYPE":"U","ARG_OF_PERICENTER":"84.5855","DECAY_DATE":null,"SEMIMAJOR_AXIS":"6925.412","MEAN_ELEMENT_THEORY":"SGP4","ELEMENT_SET_NO":"999","TIME_SYSTEM":"UTC","LAUNCH_DATE":"2020-04-22","SITE":"AFETR","PERIAPSIS":"546.183","OBJECT_ID":"2020-025T","MEAN_ANOMALY":"275.5314","MEAN_MOTION":"15.06379446","EPOCH":"2023-04-26T17:36:09.509760","MEAN_MOTION_DOT":"0.00001986","REF_FRAME":"TEME","PERIOD":"95.593","COUNTRY_CODE":"US","CENTER_NAME":"EARTH","BSTAR":"0.00015225000000","GP_ID":"230795970","RCS_SIZE":"LARGE","MEAN_MOTION_DDOT":"0.0000000000000","INCLINATION":"53.0534","TLE_LINE2":"2 45548  53.0534 131.0764 0001579  84.5855 275.5314 15.06379446167137","RA_OF_ASC_NODE":"131.0764","REV_AT_EPOCH":"16713","NORAD_CAT_ID":"45548","OBJECT_NAME":"STARLINK-1378","TLE_LINE1":"1 45548U 20025T   23116.73344340  .00001986  00000-0  15225-3 0  9998","OBJECT_TYPE":"PAYLOAD","FILE":"3894261","ECCENTRICITY":"0.00015790","APOAPSIS":"548.370","EPHEMERIS_TYPE":"0"},{"MEAN_MOTION_DDOT":"0.0000000000000","GP_ID":"230796220","RCS_SIZE":"LARGE","BSTAR":"0.00059338000000","RA_OF_ASC_NODE":"130.2517","INCLINATION":"53.0536","TLE_LINE2":"2 45550  53.0536 130.2517 0001534  64.4970 295.6177 15.06370297167152","REV_AT_EPOCH":"16715","NORAD_CAT_ID":"45550","APOAPSIS":"548.367","ECCENTRICITY":"0.00015340","EPHEMERIS_TYPE":"0","OBJECT_TYPE":"PAYLOAD","FILE":"3894261","TLE_LINE1":"1 45550U 20025V   23116.85779194  .00008561  00000-0  59338-3 0  9992","OBJECT_NAME":"STARLINK-1390","ELEMENT_SET_NO":"999","MEAN_ELEMENT_THEORY":"SGP4","DECAY_DATE":null,"ARG_OF_PERICENTER":"64.4970","SEMIMAJOR_AXIS":"6925.440","CLASSIFICATION_TYPE":"U","SITE":"AFETR","PERIAPSIS":"546.242","LAUNCH_DATE":"2020-04-22","TIME_SYSTEM":"UTC","EPOCH":"2023-04-26T20:35:13.223616","MEAN_ANOMALY":"295.6177","MEAN_MOTION":"15.06370297","OBJECT_ID":"2020-025V","CENTER_NAME":"EARTH","PERIOD":"95.594","COUNTRY_CODE":"US","MEAN_MOTION_DOT":"0.00008561","REF_FRAME":"TEME"},{"ELEMENT_SET_NO":"999","MEAN_ELEMENT_THEORY":"SGP4","ARG_OF_PERICENTER":"78.8653","DECAY_DATE":null,"SEMIMAJOR_AXIS":"6925.414","CLASSIFICATION_TYPE":"U","SITE":"AFETR","PERIAPSIS":"546.139","LAUNCH_DATE":"2020-04-22","TIME_SYSTEM":"UTC","EPOCH":"2023-04-26T16:29:48.545952","MEAN_ANOMALY":"281.2520","MEAN_MOTION":"15.06378714","OBJECT_ID":"2020-025W","CENTER_NAME":"EARTH","PERIOD":"95.593","COUNTRY_CODE":"US","MEAN_MOTION_DOT":"0.00000057","REF_FRAME":"TEME","MEAN_MOTION_DDOT":"0.0000000000000","GP_ID":"230796472","RCS_SIZE":"LARGE","BSTAR":"0.00002274100000","RA_OF_ASC_NODE":"111.2798","INCLINATION":"53.0540","TLE_LINE2":"2 45551  53.0540 111.2798 0001646  78.8653 281.2520 15.06378714167413","REV_AT_EPOCH":"16741","NORAD_CAT_ID":"45551","ECCENTRICITY":"0.00016460","APOAPSIS":"548.419","EPHEMERIS_TYPE":"0","FILE":"3894261","OBJECT_TYPE":"PAYLOAD","TLE_LINE1":"1 45551U 20025W   23116.68736743  .00000057  00000-0  22741-4 0  9998","OBJECT_NAME":"STARLINK-1294"},{"BSTAR":"-0.00059538000000","RCS_SIZE":"LARGE","GP_ID":"230796723","MEAN_MOTION_DDOT":"0.0000000000000","TLE_LINE2":"2 45553  53.0544 111.2295 0001296  84.0246 276.0891 15.06364139166125","INCLINATION":"53.0544","RA_OF_ASC_NODE":"111.2295","NORAD_CAT_ID":"45553","REV_AT_EPOCH":"16612","OBJECT_NAME":"STARLINK-1323","TLE_LINE1":"1 45553U 20025Y   23116.69842566 -.00009130  00000-0 -59538-3 0  9998","OBJECT_TYPE":"PAYLOAD","FILE":"3894261","EPHEMERIS_TYPE":"0","APOAPSIS":"548.221","ECCENTRICITY":"0.00012960","CLASSIFICATION_TYPE":"U","SEMIMAJOR_AXIS":"6925.458","ARG_OF_PERICENTER":"84.0246","DECAY_DATE":null,"MEAN_ELEMENT_THEORY":"SGP4","ELEMENT_SET_NO":"999","TIME_SYSTEM":"UTC","LAUNCH_DATE":"2020-04-22","PERIAPSIS":"546.426","SITE":"AFETR","OBJECT_ID":"2020-025Y","MEAN_MOTION":"15.06364139","MEAN_ANOMALY":"276.0891","EPOCH":"2023-04-26T16:45:43.977024","REF_FRAME":"TEME","MEAN_MOTION_DOT":"-0.00009130","COUNTRY_CODE":"US","PERIOD":"95.594","CENTER_NAME":"EARTH"},{"MEAN_ANOMALY":"279.6606","MEAN_MOTION":"15.06376918","EPOCH":"2023-04-26T16:33:45.558432","OBJECT_ID":"2020-025Z","PERIOD":"95.594","COUNTRY_CODE":"US","CENTER_NAME":"EARTH","MEAN_MOTION_DOT":"0.00000473","REF_FRAME":"TEME","MEAN_ELEMENT_THEORY":"SGP4","ELEMENT_SET_NO":"999","CLASSIFICATION_TYPE":"U","DECAY_DATE":null,"ARG_OF_PERICENTER":"80.4552","SEMIMAJOR_AXIS":"6925.419","LAUNCH_DATE":"2020-04-22","SITE":"AFETR","PERIAPSIS":"546.249","TIME_SYSTEM":"UTC","REV_AT_EPOCH":"16741","NORAD_CAT_ID":"45554","FILE":"3894261","OBJECT_TYPE":"PAYLOAD","ECCENTRICITY":"0.00014950","APOAPSIS":"548.320","EPHEMERIS_TYPE":"0","OBJECT_NAME":"STARLINK-1325","TLE_LINE1":"1 45554U 20025Z   23116.69011063  .00000473  00000-0  50665-4 0  9991","GP_ID":"230795471","RCS_SIZE":"LARGE","MEAN_MOTION_DDOT":"0.0000000000000","BSTAR":"0.00005066500000","INCLINATION":"53.0538","TLE_LINE2":"2 45554  53.0538 111.2573 0001495  80.4552 279.6606 15.06376918167413","RA_OF_ASC_NODE":"111.2573"},{"MEAN_MOTION":"15.06368909","MEAN_ANOMALY":"281.9756","EPOCH":"2023-04-26T17:17:35.151072","OBJECT_ID":"2020-025AA","COUNTRY_CODE":"US","PERIOD":"95.594","CENTER_NAME":"EARTH","REF_FRAME":"TEME","MEAN_MOTION_DOT":"0.00005672","MEAN_ELEMENT_THEORY":"SGP4","ELEMENT_SET_NO":"999","CLASSIFICATION_TYPE":"U","SEMIMAJOR_AXIS":"6925.444","ARG_OF_PERICENTER":"78.1381","DECAY_DATE":null,"LAUNCH_DATE":"2020-04-22","PERIAPSIS":"546.398","SITE":"AFETR","TIME_SYSTEM":"UTC","NORAD_CAT_ID":"45555","REV_AT_EPOCH":"16741","FILE":"3894261","OBJECT_TYPE":"PAYLOAD","EPHEMERIS_TYPE":"0","APOAPSIS":"548.220","ECCENTRICITY":"0.00013150","OBJECT_NAME":"STARLINK-1327","TLE_LINE1":"1 45555U 20025AA  23116.72054573  .00005672  00000-0  39970-3 0  9990","RCS_SIZE":"LARGE","GP_ID":"230795721","MEAN_MOTION_DDOT":"0.0000000000000","BSTAR":"0.00039970000000","TLE_LINE2":"2 45555  53.0533 111.1290 0001315  78.1381 281.9756 15.06368909167412","INCLINATION":"53.0533","RA_OF_ASC_NODE":"111.1290"},{"FILE":"3894260","OBJECT_TYPE":"PAYLOAD","ECCENTRICITY":"0.00013770","APOAPSIS":"548.247","EPHEMERIS_TYPE":"0","OBJECT_NAME":"STARLINK-1334","TLE_LINE1":"1 45556U 20025AB  23116.49569622 -.00000461  00000-0 -12074-4 0  9991","REV_AT_EPOCH":"16738","NORAD_CAT_ID":"45556","INCLINATION":"53.0544","TLE_LINE2":"2 45556  53.0544 112.1435 0001377  88.6350 271.4796 15.06373842167383","RA_OF_ASC_NODE":"112.1435","GP_ID":"230769466","RCS_SIZE":"LARGE","MEAN_MOTION_DDOT":"0.0000000000000","BSTAR":"-0.00001207400000","COUNTRY_CODE":"US","PERIOD":"95.594","CENTER_NAME":"EARTH","MEAN_MOTION_DOT":"-0.00000461","REF_FRAME":"TEME","MEAN_ANOMALY":"271.4796","MEAN_MOTION":"15.06373842","EPOCH":"2023-04-26T11:53:48.153408","OBJECT_ID":"2020-025AB","LAUNCH_DATE":"2020-04-22","SITE":"AFETR","PERIAPSIS":"546.340","TIME_SYSTEM":"UTC","MEAN_ELEMENT_THEORY":"SGP4","ELEMENT_SET_NO":"999","CLASSIFICATION_TYPE":"U","ARG_OF_PERICENTER":"88.6350","DECAY_DATE":null,"SEMIMAJOR_AXIS":"6925.429"},{"TIME_SYSTEM":"UTC","SITE":"AFETR","PERIAPSIS":"546.332","LAUNCH_DATE":"2020-04-22","ARG_OF_PERICENTER":"89.8836","DECAY_DATE":null,"SEMIMAJOR_AXIS":"6925.397","CLASSIFICATION_TYPE":"U","ELEMENT_SET_NO":"999","MEAN_ELEMENT_THEORY":"SGP4","MEAN_MOTION_DOT":"0.00006971","REF_FRAME":"TEME","CENTER_NAME":"EARTH","COUNTRY_CODE":"US","PERIOD":"95.593","OBJECT_ID":"2020-025AC","EPOCH":"2023-04-26T16:51:01.959264","MEAN_ANOMALY":"270.2307","MEAN_MOTION":"15.06384248","RA_OF_ASC_NODE":"111.2170","INCLINATION":"53.0535","TLE_LINE2":"2 45557  53.0535 111.2170 0001342  89.8836 270.2307 15.06384248167415","BSTAR":"0.00048664000000","MEAN_MOTION_DDOT":"0.0000000000000","GP_ID":"230797222","RCS_SIZE":"LARGE","TLE_LINE1":"1 45557U 20025AC  23116.70210601  .00006971  00000-0  48664-3 0  9999","OBJECT_NAME":"STARLINK-1336","ECCENTRICITY":"0.00013420","APOAPSIS":"548.191","EPHEMERIS_TYPE":"0","FILE":"3894261","OBJECT_TYPE":"PAYLOAD","REV_AT_EPOCH":"16741","NORAD_CAT_ID":"45557"}];
